[{"OBJECT_NAME":"ONEWEB-0229","OBJECT_ID":"2021-045N","EPOCH":"2026-06-05T13:51:00.785952","MEAN_MOTION":13.1554906,"ECCENTRICITY":0.0001859,"INCLINATION":87.9008,"RA_OF_ASC_NODE":261.5024,"ARG_OF_PERICENTER":96.7994,"MEAN_ANOMALY":263.3348,"EPHEMERIS_TYPE":0,"CLASSIFICATION_TYPE":"U","NORAD_CAT_ID":48779,"ELEMENT_SET_NO":999,"REV_AT_EPOCH":24288,"BSTAR":0.00067434,"MEAN_MOTION_DOT":2.67e-06,"MEAN_MOTION_DDOT":0.0},{"OBJECT_NAME":"ONEWEB-0228","OBJECT_ID":"2021-045P","EPOCH":"2026-06-05T00:02:55.665024","MEAN_MOTION":13.15555343,"ECCENTRICITY":0.0001724,"INCLINATION":87.9019,"RA_OF_ASC_NODE":261.6087,"ARG_OF_PERICENTER":100.9406,"MEAN_ANOMALY":259.1919,"EPHEMERIS_TYPE":0,"CLASSIFICATION_TYPE":"U","NORAD_CAT_ID":48780,"ELEMENT_SET_NO":999,"REV_AT_EPOCH":24272,"BSTAR":-0.0020253,"MEAN_MOTION_DOT":-7.5e-06,"MEAN_MOTION_DDOT":0.0},{"OBJECT_NAME":"ONEWEB-0232","OBJECT_ID":"2021-045Q","EPOCH":"2026-06-05T14:02:25.296000","MEAN_MOTION":13.15549722,"ECCENTRICITY":0.0001893,"INCLINATION":87.9011,"RA_OF_ASC_NODE":261.4941,"ARG_OF_PERICENTER":103.4324,"MEAN_ANOMALY":256.7017,"EPHEMERIS_TYPE":0,"CLASSIFICATION_TYPE":"U","NORAD_CAT_ID":48781,"ELEMENT_SET_NO":999,"REV_AT_EPOCH":24312,"BSTAR":0.00041351,"MEAN_MOTION_DOT":1.68e-06,"MEAN_MOTION_DDOT":0.0},{"OBJECT_NAME":"ONEWEB-0231","OBJECT_ID":"2021-045R","EPOCH":"2026-06-05T13:30:28.259712","MEAN_MOTION":13.15548078,"ECCENTRICITY":0.000168,"INCLINATION":87.9005,"RA_OF_ASC_NODE":261.5123,"ARG_OF_PERICENTER":102.8678,"MEAN_ANOMALY":257.264,"EPHEMERIS_TYPE":0,"CLASSIFICATION_TYPE":"U","NORAD_CAT_ID":48782,"ELEMENT_SET_NO":999,"REV_AT_EPOCH":24281,"BSTAR":-1.8304000000000003e-05,"MEAN_MOTION_DOT":6e-08,"MEAN_MOTION_DDOT":0.0},{"OBJECT_NAME":"ONEWEB-0234","OBJECT_ID":"2021-045S","EPOCH":"2026-06-05T12:35:31.271136","MEAN_MOTION":13.15549092,"ECCENTRICITY":0.000236,"INCLINATION":87.8992,"RA_OF_ASC_NODE":261.5,"ARG_OF_PERICENTER":121.4586,"MEAN_ANOMALY":238.6775,"EPHEMERIS_TYPE":0,"CLASSIFICATION_TYPE":"U","NORAD_CAT_ID":48783,"ELEMENT_SET_NO":999,"REV_AT_EPOCH":24294,"BSTAR":0.00071192,"MEAN_MOTION_DOT":2.81e-06,"MEAN_MOTION_DDOT":0.0},{"OBJECT_NAME":"ONEWEB-0238","OBJECT_ID":"2021-045T","EPOCH":"2026-06-05T12:35:54.472128","MEAN_MOTION":13.15550097,"ECCENTRICITY":0.0002146,"INCLINATION":87.9007,"RA_OF_ASC_NODE":261.4943,"ARG_OF_PERICENTER":114.4157,"MEAN_ANOMALY":245.7197,"EPHEMERIS_TYPE":0,"CLASSIFICATION_TYPE":"U","NORAD_CAT_ID":48784,"ELEMENT_SET_NO":999,"REV_AT_EPOCH":24284,"BSTAR":0.00017033,"MEAN_MOTION_DOT":7.7e-07,"MEAN_MOTION_DDOT":0.0},{"OBJECT_NAME":"ONEWEB-0240","OBJECT_ID":"2021-045U","EPOCH":"2026-06-05T13:06:30.087648","MEAN_MOTION":13.15548566,"ECCENTRICITY":0.0001626,"INCLINATION":87.9014,"RA_OF_ASC_NODE":261.5008,"ARG_OF_PERICENTER":108.4354,"MEAN_ANOMALY":251.6953,"EPHEMERIS_TYPE":0,"CLASSIFICATION_TYPE":"U","NORAD_CAT_ID":48785,"ELEMENT_SET_NO":999,"REV_AT_EPOCH":24287,"BSTAR":-0.0009460499999999999,"MEAN_MOTION_DOT":-3.43e-06,"MEAN_MOTION_DDOT":0.0},{"OBJECT_NAME":"ONEWEB-0246","OBJECT_ID":"2021-045V","EPOCH":"2026-06-05T12:58:32.494368","MEAN_MOTION":13.15548432,"ECCENTRICITY":0.0001839,"INCLINATION":87.9009,"RA_OF_ASC_NODE":261.5066,"ARG_OF_PERICENTER":97.7435,"MEAN_ANOMALY":262.3904,"EPHEMERIS_TYPE":0,"CLASSIFICATION_TYPE":"U","NORAD_CAT_ID":48786,"ELEMENT_SET_NO":999,"REV_AT_EPOCH":24274,"BSTAR":-0.00014973000000000002,"MEAN_MOTION_DOT":-4.4e-07,"MEAN_MOTION_DDOT":0.0},{"OBJECT_NAME":"ONEWEB-0210","OBJECT_ID":"2021-045W","EPOCH":"2026-06-05T19:40:06.983328","MEAN_MOTION":13.15550845,"ECCENTRICITY":0.0001343,"INCLINATION":87.8997,"RA_OF_ASC_NODE":261.4481,"ARG_OF_PERICENTER":74.2597,"MEAN_ANOMALY":285.8681,"EPHEMERIS_TYPE":0,"CLASSIFICATION_TYPE":"U","NORAD_CAT_ID":48787,"ELEMENT_SET_NO":999,"REV_AT_EPOCH":24282,"BSTAR":0.00057504,"MEAN_MOTION_DOT":2.29e-06,"MEAN_MOTION_DDOT":0.0},{"OBJECT_NAME":"ONEWEB-0214","OBJECT_ID":"2021-045X","EPOCH":"2026-06-05T12:34:34.495968","MEAN_MOTION":13.1554843,"ECCENTRICITY":0.0001911,"INCLINATION":87.9011,"RA_OF_ASC_NODE":261.5037,"ARG_OF_PERICENTER":90.4599,"MEAN_ANOMALY":269.675,"EPHEMERIS_TYPE":0,"CLASSIFICATION_TYPE":"U","NORAD_CAT_ID":48788,"ELEMENT_SET_NO":999,"REV_AT_EPOCH":24275,"BSTAR":0.00028656,"MEAN_MOTION_DOT":1.21e-06,"MEAN_MOTION_DDOT":0.0},{"OBJECT_NAME":"ONEWEB-0221","OBJECT_ID":"2021-045Y","EPOCH":"2026-06-04T05:42:57.264192","MEAN_MOTION":13.15547831,"ECCENTRICITY":0.000194,"INCLINATION":87.9015,"RA_OF_ASC_NODE":261.7684,"ARG_OF_PERICENTER":112.0045,"MEAN_ANOMALY":248.1292,"EPHEMERIS_TYPE":0,"CLASSIFICATION_TYPE":"U","NORAD_CAT_ID":48789,"ELEMENT_SET_NO":999,"REV_AT_EPOCH":24267,"BSTAR":-0.00011203000000000001,"MEAN_MOTION_DOT":-2.9e-07,"MEAN_MOTION_DDOT":0.0},{"OBJECT_NAME":"ONEWEB-0213","OBJECT_ID":"2021-045Z","EPOCH":"2026-06-04T16:24:06.221376","MEAN_MOTION":13.15549829,"ECCENTRICITY":0.0001681,"INCLINATION":87.9011,"RA_OF_ASC_NODE":261.6833,"ARG_OF_PERICENTER":100.3507,"MEAN_ANOMALY":259.7813,"EPHEMERIS_TYPE":0,"CLASSIFICATION_TYPE":"U","NORAD_CAT_ID":48790,"ELEMENT_SET_NO":999,"REV_AT_EPOCH":24279,"BSTAR":-2.6255000000000002e-05,"MEAN_MOTION_DOT":3e-08,"MEAN_MOTION_DDOT":0.0},{"OBJECT_NAME":"ONEWEB-0212","OBJECT_ID":"2021-045AA","EPOCH":"2026-06-05T19:13:53.151168","MEAN_MOTION":13.15549458,"ECCENTRICITY":0.0001913,"INCLINATION":87.9008,"RA_OF_ASC_NODE":261.4552,"ARG_OF_PERICENTER":102.579,"MEAN_ANOMALY":257.5555,"EPHEMERIS_TYPE":0,"CLASSIFICATION_TYPE":"U","NORAD_CAT_ID":48791,"ELEMENT_SET_NO":999,"REV_AT_EPOCH":24293,"BSTAR":0.00043786000000000004,"MEAN_MOTION_DOT":1.78e-06,"MEAN_MOTION_DDOT":0.0},{"OBJECT_NAME":"ONEWEB-0227","OBJECT_ID":"2021-045AB","EPOCH":"2026-06-05T13:44:10.538880","MEAN_MOTION":13.1554841,"ECCENTRICITY":0.0001865,"INCLINATION":87.9005,"RA_OF_ASC_NODE":261.5018,"ARG_OF_PERICENTER":102.363,"MEAN_ANOMALY":257.7709,"EPHEMERIS_TYPE":0,"CLASSIFICATION_TYPE":"U","NORAD_CAT_ID":48792,"ELEMENT_SET_NO":999,"REV_AT_EPOCH":24285,"BSTAR":0.00033241,"MEAN_MOTION_DOT":1.38e-06,"MEAN_MOTION_DDOT":0.0},{"OBJECT_NAME":"ONEWEB-0226","OBJECT_ID":"2021-045AC","EPOCH":"2026-06-05T13:35:02.553792","MEAN_MOTION":13.15549762,"ECCENTRICITY":0.0001699,"INCLINATION":87.9001,"RA_OF_ASC_NODE":261.508,"ARG_OF_PERICENTER":95.2775,"MEAN_ANOMALY":264.855,"EPHEMERIS_TYPE":0,"CLASSIFICATION_TYPE":"U","NORAD_CAT_ID":48793,"ELEMENT_SET_NO":999,"REV_AT_EPOCH":24282,"BSTAR":0.00011664,"MEAN_MOTION_DOT":5.7e-07,"MEAN_MOTION_DDOT":0.0},{"OBJECT_NAME":"ONEWEB-0224","OBJECT_ID":"2021-045AD","EPOCH":"2026-06-04T16:37:47.784288","MEAN_MOTION":13.15550316,"ECCENTRICITY":0.0001885,"INCLINATION":87.9001,"RA_OF_ASC_NODE":261.7162,"ARG_OF_PERICENTER":128.321,"MEAN_ANOMALY":231.809,"EPHEMERIS_TYPE":0,"CLASSIFICATION_TYPE":"U","NORAD_CAT_ID":48794,"ELEMENT_SET_NO":999,"REV_AT_EPOCH":24263,"BSTAR":-0.00011537,"MEAN_MOTION_DOT":-3.1e-07,"MEAN_MOTION_DDOT":0.0}]