ONEWEB-0229             
1 48779U 21045N   26156.57709243  .00000267  00000+0  67434-3 0  9995
2 48779  87.9008 261.5024 0001859  96.7994 263.3348 13.15549060242883
ONEWEB-0228             
1 48780U 21045P   26156.00203316 -.00000750  00000+0 -20253-2 0  9991
2 48780  87.9019 261.6087 0001724 100.9406 259.1919 13.15555343242725
ONEWEB-0232             
1 48781U 21045Q   26156.58501500  .00000168  00000+0  41351-3 0  9995
2 48781  87.9011 261.4941 0001893 103.4324 256.7017 13.15549722243120
ONEWEB-0231             
1 48782U 21045R   26156.56282708  .00000006  00000+0 -18304-4 0  9995
2 48782  87.9005 261.5123 0001680 102.8678 257.2640 13.15548078242812
ONEWEB-0234             
1 48783U 21045S   26156.52466749  .00000281  00000+0  71192-3 0  9998
2 48783  87.8992 261.5000 0002360 121.4586 238.6775 13.15549092242945
ONEWEB-0238             
1 48784U 21045T   26156.52493602  .00000077  00000+0  17033-3 0  9994
2 48784  87.9007 261.4943 0002146 114.4157 245.7197 13.15550097242840
ONEWEB-0240             
1 48785U 21045U   26156.54618157 -.00000343  00000+0 -94605-3 0  9999
2 48785  87.9014 261.5008 0001626 108.4354 251.6953 13.15548566242873
ONEWEB-0246             
1 48786U 21045V   26156.54065387 -.00000044  00000+0 -14973-3 0  9999
2 48786  87.9009 261.5066 0001839  97.7435 262.3904 13.15548432242741
ONEWEB-0210             
1 48787U 21045W   26156.81952527  .00000229  00000+0  57504-3 0  9991
2 48787  87.8997 261.4481 0001343  74.2597 285.8681 13.15550845242828
ONEWEB-0214             
1 48788U 21045X   26156.52401037  .00000121  00000+0  28656-3 0  9992
2 48788  87.9011 261.5037 0001911  90.4599 269.6750 13.15548430242754
ONEWEB-0221             
1 48789U 21045Y   26155.23816278 -.00000029  00000+0 -11203-3 0  9996
2 48789  87.9015 261.7684 0001940 112.0045 248.1292 13.15547831242676
ONEWEB-0213             
1 48790U 21045Z   26155.68340534  .00000003  00000+0 -26255-4 0  9999
2 48790  87.9011 261.6833 0001681 100.3507 259.7813 13.15549829242793
ONEWEB-0212             
1 48791U 21045AA  26156.80130962  .00000178  00000+0  43786-3 0  9996
2 48791  87.9008 261.4552 0001913 102.5790 257.5555 13.15549458242935
ONEWEB-0227             
1 48792U 21045AB  26156.57234420  .00000138  00000+0  33241-3 0  9996
2 48792  87.9005 261.5018 0001865 102.3630 257.7709 13.15548410242859
ONEWEB-0226             
1 48793U 21045AC  26156.56600178  .00000057  00000+0  11664-3 0  9998
2 48793  87.9001 261.5080 0001699  95.2775 264.8550 13.15549762242821
ONEWEB-0224             
1 48794U 21045AD  26155.69291417 -.00000031  00000+0 -11537-3 0  9997
2 48794  87.9001 261.7162 0001885 128.3210 231.8090 13.15550316242633
